[{"OBJECT_NAME":"GALAXY 30 (WAAS\/PRN 135)","OBJECT_ID":"2020-056C","EPOCH":"2022-08-19T12:29:50.404992","MEAN_MOTION":1.00272828,"ECCENTRICITY":0.0002008,"INCLINATION":0.0137,"RA_OF_ASC_NODE":127.262,"ARG_OF_PERICENTER":32.7201,"MEAN_ANOMALY":230.312,"EPHEMERIS_TYPE":0,"CLASSIFICATION_TYPE":"U","NORAD_CAT_ID":46114,"ELEMENT_SET_NO":999,"REV_AT_EPOCH":727,"BSTAR":0,"MEAN_MOTION_DOT":3.1e-7,"MEAN_MOTION_DDOT":0},{"OBJECT_NAME":"GPS BIII-4  (PRN 14)","OBJECT_ID":"2020-078A","EPOCH":"2022-08-19T07:57:00.805248","MEAN_MOTION":2.0056522,"ECCENTRICITY":0.002266,"INCLINATION":54.5271,"RA_OF_ASC_NODE":267.5428,"ARG_OF_PERICENTER":190.6602,"MEAN_ANOMALY":227.294,"EPHEMERIS_TYPE":0,"CLASSIFICATION_TYPE":"U","NORAD_CAT_ID":46826,"ELEMENT_SET_NO":999,"REV_AT_EPOCH":1347,"BSTAR":0,"MEAN_MOTION_DOT":1.8e-7,"MEAN_MOTION_DDOT":0},{"OBJECT_NAME":"GPS BIII-5  (PRN 11)","OBJECT_ID":"2021-054A","EPOCH":"2022-08-18T05:47:39.812064","MEAN_MOTION":2.00570087,"ECCENTRICITY":0.0006628,"INCLINATION":55.2152,"RA_OF_ASC_NODE":28.5616,"ARG_OF_PERICENTER":191.8229,"MEAN_ANOMALY":343.9417,"EPHEMERIS_TYPE":0,"CLASSIFICATION_TYPE":"U","NORAD_CAT_ID":48859,"ELEMENT_SET_NO":999,"REV_AT_EPOCH":869,"BSTAR":0,"MEAN_MOTION_DOT":-8.8e-7,"MEAN_MOTION_DDOT":0}]