GALAXY 30 (G-30)        
1 46114U 20056C   22231.52072228  .00000031  00000+0  00000+0 0  9999
2 46114   0.0137 127.2620 0002008  32.7201 230.3120  1.00272828  7271
NAVSTAR 80 (USA 309)    
1 46826U 20078A   22231.33125932  .00000018  00000+0  00000+0 0  9998
2 46826  54.5271 267.5428 0022660 190.6602 227.2940  2.00565220 13479
NAVSTAR 81 (USA 319)    
1 48859U 21054A   22230.24143301 -.00000088  00000+0  00000+0 0  9998
2 48859  55.2152  28.5616 0006628 191.8229 343.9417  2.00570087  8691
